IRIDIUM 57              
1 25273U 98019B   24132.89218182  .00001474  00000+0  50930-3 0  9992
2 25273  86.3926 313.3350 0002150  88.7881 271.3562 14.35194741367428
IRIDIUM 63              
1 25286U 98021B   24132.86008268  .00001869  00000+0  64024-3 0  9995
2 25286  86.3988 250.2229 0002293  97.1881 262.9577 14.35742774366242
IRIDIUM 69              
1 25319U 98026A   24132.89627640  .00003081  00000+0  97357-3 0  9994
2 25319  86.3964 264.7102 0000360 203.8219 156.2963 14.39963459365294
IRIDIUM 71              
1 25320U 98026B   24132.83474138  .00002135  00000+0  66850-3 0  9995
2 25320  86.3966 259.5023 0002046  31.9221 328.2102 14.40281013365802
IRIDIUM 73              
1 25344U 98032C   24132.73985333  .00002478  00000+0  62853-3 0  9990
2 25344  86.4470 217.0347 0001667  96.6491 263.4903 14.50502897372345
IRIDIUM 82              
1 25467U 98051A   24132.88609423  .00036681  00000+0  18920-2 0  9994
2 25467  86.3719 302.9876 0128577 355.1273   4.8701 15.09191107363018
